[{"OBJECT_NAME":"STARLINK-30576","OBJECT_ID":"2023-158Q","EPOCH":"2026-03-09T06:07:05.038752","MEAN_MOTION":15.27569358,"ECCENTRICITY":0.000102,"INCLINATION":43.0047,"RA_OF_ASC_NODE":29.4883,"ARG_OF_PERICENTER":269.0144,"MEAN_ANOMALY":91.0591,"EPHEMERIS_TYPE":0,"CLASSIFICATION_TYPE":"U","NORAD_CAT_ID":58065,"ELEMENT_SET_NO":999,"REV_AT_EPOCH":13350,"BSTAR":6.1525351e-5,"MEAN_MOTION_DOT":1.431e-5,"MEAN_MOTION_DDOT":0},{"OBJECT_NAME":"TIANMU-1 22","OBJECT_ID":"2023-208D","EPOCH":"2026-03-09T22:39:05.738688","MEAN_MOTION":15.29457749,"ECCENTRICITY":0.00031332,"INCLINATION":97.4379,"RA_OF_ASC_NODE":184.9419,"ARG_OF_PERICENTER":351.9312,"MEAN_ANOMALY":8.1877,"EPHEMERIS_TYPE":0,"CLASSIFICATION_TYPE":"U","NORAD_CAT_ID":58663,"ELEMENT_SET_NO":999,"REV_AT_EPOCH":12215,"BSTAR":0.00038239675,"MEAN_MOTION_DOT":0.00010851,"MEAN_MOTION_DDOT":0}]
